ONEWEB-0208             
1 48243U 21031AK  25266.89994397  .00000268  00000+0  68901-3 0  9999
2 48243  87.9079 342.7302 0001879 105.3034 254.8304 13.14501437213321
ONEWEB-0200             
1 48244U 21031AL  25266.93958356 -.00000145  00000+0 -42567-3 0  9996
2 48244  87.9077 342.7123 0001890 103.1934 256.9407 13.14504876213258
ONEWEB-0217             
1 48245U 21031AM  25266.95544013  .00000013  00000+0  29175-6 0  9995
2 48245  87.9086 342.6967 0001876 110.3027 249.8304 13.14503147213203
ONEWEB-0211             
1 48767U 21045A   25266.58008996  .00000153  00000+0  37027-3 0  9990
2 48767  87.9021 312.3331 0001593 103.4415 256.6893 13.16085603209376
ONEWEB-0223             
1 48768U 21045B   25266.84050073 -.00000041  00000+0 -14216-3 0  9996
2 48768  87.9009 312.3355 0001449 104.6564 255.4727 13.15547221209389
ONEWEB-0230             
1 48769U 21045C   25266.58380613  .00000238  00000+0  59902-3 0  9991
2 48769  87.9005 312.4198 0001835  91.7147 268.4194 13.15550107209619
ONEWEB-0237             
1 48770U 21045D   25266.64876609  .00000082  00000+0  18424-3 0  9996
2 48770  87.9015 312.4032 0001576  97.9182 262.2127 13.15546892209342
ONEWEB-0235             
1 48771U 21045E   25266.85160316 -.00000134  00000+0 -39054-3 0  9993
2 48771  87.9010 312.3345 0001437 104.9112 255.2178 13.15548772209361
ONEWEB-0242             
1 48772U 21045F   25266.84524172 -.00000078  00000+0 -24157-3 0  9992
2 48772  87.9018 312.3227 0001691  93.7408 266.3915 13.15550097209404
ONEWEB-0241             
1 48773U 21045G   25266.83257303  .00000039  00000+0  69675-4 0  9991
2 48773  87.9006 312.3716 0001685 110.5597 249.5714 13.15550057209311
ONEWEB-0243             
1 48774U 21045H   25266.86426166 -.00000027  00000+0 -10477-3 0  9994
2 48774  87.9016 312.3690 0001426  96.8455 263.2838 13.15553615209342
ONEWEB-0222             
1 48775U 21045J   25266.84763117 -.00000063  00000+0 -20109-3 0  9996
2 48775  87.9016 312.3241 0001757  99.5704 260.5625 13.15547361209388
ONEWEB-0244             
1 48776U 21045K   25266.87377969  .00000097  00000+0  22316-3 0  9993
2 48776  87.9021 312.3021 0001700  92.4886 267.6439 13.15547228209958
ONEWEB-0247             
1 48777U 21045L   25266.87059516  .00000034  00000+0  55620-4 0  9995
2 48777  87.9008 312.3703 0000884 104.6239 255.4989 13.15546988209396
ONEWEB-0245             
1 48778U 21045M   25266.86585445 -.00000026  00000+0 -10304-3 0  9992
2 48778  87.9009 312.3349 0001869 103.2983 256.8356 13.15547390209367
ONEWEB-0229             
1 48779U 21045N   25266.86108936 -.00000056  00000+0 -18324-3 0  9992
2 48779  87.9008 312.3356 0001736  94.2899 265.8430 13.15546743209390
ONEWEB-0228             
1 48780U 21045P   25266.89450127  .00000202  00000+0  50313-3 0  9994
2 48780  87.9017 312.3054 0001730  97.1103 263.0225 13.15546733209314
ONEWEB-0232             
1 48781U 21045Q   25266.86902938  .00000056  00000+0  11534-3 0  9993
2 48781  87.9011 312.3024 0001822  96.4147 263.7191 13.15547574209636
ONEWEB-0231             
1 48782U 21045R   25266.84683377 -.00000065  00000+0 -20624-3 0  9997
2 48782  87.9008 312.3578 0001551  97.4431 262.6876 13.15546742209323
ONEWEB-0234             
1 48783U 21045S   25266.58049628  .00000142  00000+0  34329-3 0  9995
2 48783  87.9014 312.3807 0002598 107.9147 252.2267 13.15546859209428
ONEWEB-0238             
1 48784U 21045T   25266.58077485  .00000183  00000+0  45289-3 0  9990
2 48784  87.9010 312.3762 0002185 101.3411 258.7965 13.15549713209326
ONEWEB-0240             
1 48785U 21045U   25266.83022276 -.00001501  00000+0 -40239-2 0  9993
2 48785  87.9046 312.3137 0001782 111.9307 248.2013 13.15532975209381
ONEWEB-0246             
1 48786U 21045V   25266.82465044  .00000070  00000+0  15182-3 0  9995
2 48786  87.9021 312.3259 0001701  93.9910 266.1415 13.15549742209251
ONEWEB-0210             
1 48787U 21045W   25266.87536006  .00000073  00000+0  16085-3 0  9994
2 48787  87.9017 312.3151 0001168  89.6798 270.4466 13.15548888209301
ONEWEB-0214             
1 48788U 21045X   25266.57983997  .00000177  00000+0  43629-3 0  9996
2 48788  87.9017 312.3615 0001468  85.7051 274.4247 13.15549091209239
ONEWEB-0221             
1 48789U 21045Y   25266.89119799  .00000281  00000+0  71121-3 0  9997
2 48789  87.9008 312.3244 0001635  99.3042 260.8273 13.15547775209364
ONEWEB-0213             
1 48790U 21045Z   25266.57587872  .00000207  00000+0  51598-3 0  9999
2 48790  87.9009 312.3957 0001553  97.6546 262.4760 13.15550227209384
ONEWEB-0212             
1 48791U 21045AA  25266.85713942 -.00000080  00000+0 -24688-3 0  9991
2 48791  87.9015 312.3230 0001903  97.5804 262.5542 13.15549296209418
ONEWEB-0227             
1 48792U 21045AB  25266.62817353 -.00000050  00000+0 -16656-3 0  9991
2 48792  87.9008 312.3866 0001752  99.2959 260.8370 13.15547154209330
ONEWEB-0226             
1 48793U 21045AC  25266.62183040 -.00000073  00000+0 -22902-3 0  9997
2 48793  87.9012 312.3953 0001501  94.4020 265.7282 13.15548849209306
ONEWEB-0224             
1 48794U 21045AD  25266.58539830  .00000155  00000+0  37703-3 0  9999
2 48794  87.9012 312.4376 0002127 123.9433 236.1900 13.15547939209227
ONEWEB-0233             
1 48795U 21045AE  25266.89423394  .00000192  00000+0  47475-3 0  9999
2 48795  87.9011 312.3873 0001629 105.2423 254.8887 13.15549164209285
ONEWEB-0190             
1 48796U 21045AF  25266.57745679  .00000196  00000+0  48748-3 0  9996
2 48796  87.9009 312.4131 0001124 110.0698 250.0553 13.15546453209319
ONEWEB-0236             
1 48797U 21045AG  25266.82306726  .00000161  00000+0  39411-3 0  9990
2 48797  87.9010 312.3750 0001965  96.5431 263.5923 13.15550089209235
ONEWEB-0248             
1 48798U 21045AH  25266.68361806 -.00000033  00000+0 -12080-3 0  9998
2 48798  87.9019 312.3585 0001642 117.4177 242.7120 13.15550297209377
ONEWEB-0225             
1 48799U 21045AJ  25266.85792597 -.00000078  00000+0 -24019-3 0  9997
2 48799  87.9010 312.3541 0001292 107.4351 252.6920 13.15549523209407
ONEWEB-0215             
1 48800U 21045AK  25266.82783371  .00000065  00000+0  13739-3 0  9998
2 48800  87.9023 312.3129 0001373 115.8507 244.2765 13.15547980209276
ONEWEB-0216             
1 48801U 21045AL  25266.83734601 -.00000019  00000+0 -85764-4 0  9991
2 48801  87.9008 312.3506 0001704  91.3979 268.7347 13.15550069209288
ONEWEB-0239             
1 48802U 21045AM  25266.84207692  .00000025  00000+0  33080-4 0  9997
2 48802  87.9011 312.3639 0001502 125.2431 234.8840 13.15549506209327
ONEWEB-0249             
1 48967U 21060A   25266.45476161 -.00000022  00000+0 -90504-4 0  9995
2 48967  87.8970 281.9361 0001890  94.8507 265.2840 13.16595906204510
ONEWEB-0250             
1 48968U 21060B   25266.97995033  .00000069  00000+0  12714-3 0  9992
2 48968  87.8966 280.4587 0002414 115.2274 244.9113 13.25814047204946
ONEWEB-0252             
1 48970U 21060D   25266.94239665  .00000083  00000+0  18442-3 0  9994
2 48970  87.8968 281.8318 0001831  81.7186 278.4152 13.16596144204624
ONEWEB-0253             
1 48971U 21060E   25266.55133006  .00000066  00000+0  13879-3 0  9994
2 48971  87.8967 281.9134 0001645  95.0131 265.1188 13.16595881204508
ONEWEB-0254             
1 48972U 21060F   25266.94083449  .00000077  00000+0  16832-3 0  9997
2 48972  87.8973 281.8232 0001632 104.4357 255.6956 13.16594628204555
ONEWEB-0255             
1 48973U 21060G   25266.97881830  .00000031  00000+0  46655-4 0  9998
2 48973  87.8962 281.8406 0001676  97.9774 262.1547 13.16592452204635
ONEWEB-0256             
1 48974U 21060H   25266.77694674 -.00000026  00000+0 -10057-3 0  9997
2 48974  87.8961 281.8915 0001880  87.8853 272.2493 13.16595662204574
ONEWEB-0257             
1 48975U 21060J   25266.80941363  .00000089  00000+0  19988-3 0  9991
2 48975  87.8972 281.8554 0001652  92.8338 267.2983 13.16595775204536
ONEWEB-0258             
1 48976U 21060K   25266.50700571  .00000165  00000+0  39914-3 0  9999
2 48976  87.8964 281.9383 0001917  93.7809 266.3541 13.16592649204500
ONEWEB-0259             
1 48977U 21060L   25266.80466441  .00000073  00000+0  15764-3 0  9993
2 48977  87.8967 281.8654 0001764  96.5086 263.6246 13.16595221204570
ONEWEB-0260             
1 48978U 21060M   25266.94794002  .00000139  00000+0  32946-3 0  9990
2 48978  87.8960 281.8590 0001739  75.6342 284.4982 13.16595986204574
ONEWEB-0261             
1 48979U 21060N   25266.76588622  .00000000  00000+0 -33773-4 0  9998
2 48979  87.8960 281.8969 0001413  92.5165 267.6128 13.16594465204605
ONEWEB-0262             
1 48980U 21060P   25266.59408320 -.00000021  00000+0 -87867-4 0  9994
2 48980  87.8974 281.8965 0001825 102.3414 257.7921 13.16592886204541
ONEWEB-0263             
1 48981U 21060Q   25266.77775685 -.00000031  00000+0 -11483-3 0  9997
2 48981  87.8963 281.8812 0001482 101.1552 258.9746 13.16594952204533
ONEWEB-0264             
1 48982U 21060R   25266.58697831  .00000088  00000+0  19776-3 0  9996
2 48982  87.8962 281.9239 0001648  85.9500 274.1819 13.16593628204511
ONEWEB-0266             
1 48984U 21060T   25265.54438482 -.00000016  00000+0 -76200-4 0  9997
2 48984  87.8970 282.1102 0001991  96.2963 263.8395 13.16595220204360
ONEWEB-0267             
1 48985U 21060U   25266.54343276  .00000050  00000+0  96180-4 0  9990
2 48985  87.8967 281.9131 0001584  93.2116 266.9197 13.16594962204503
ONEWEB-0268             
1 48986U 21060V   25266.58774813  .00000060  00000+0  12403-3 0  9996
2 48986  87.8970 281.9102 0001797  88.4519 271.6817 13.16596107204779
ONEWEB-0269             
1 48987U 21060W   25266.79676344  .00000110  00000+0  25358-3 0  9999
2 48987  87.8961 281.8979 0001952  89.3126 270.8228 13.16594372204575
ONEWEB-0270             
1 48988U 21060X   25266.58617444  .00000077  00000+0  16760-3 0  9992
2 48988  87.8969 281.9123 0001512 102.3267 257.8033 13.16595795204580
